NORAD_CAT_ID,OBJECT_NAME,OBJECT_TYPE,EPOCH,MEAN_MOTION,ECCENTRICITY,INCLINATION,RA_OF_ASC_NODE,ARG_OF_PERICENTER,MEAN_ANOMALY,BSTAR,MEAN_MOTION_DOT,MEAN_MOTION_DDOT,TLE_LINE0,TLE_LINE1,TLE_LINE2,SEMIMAJOR_AXIS,PERIOD,APOGEE,PERIGEE,DECAYED
53705.0,STARLINK-4717,PAYLOAD,2022-09-12 14:00:01,15.79187176,9.51e-05,53.2172,236.0984,99.6811,247.9904,-0.0073716,-0.01197065,0.0,0 STARLINK-4717,1 53705U 22107F   22255.58334491 -.01197065  00000-0 -73716-2 0  9992,2 53705  53.2172 236.0984 0000951  99.6811 247.9904 15.79187176  1304,6710.879,91.186,333.3830000000001,332.106,0.0
53705.0,STARLINK-4717,PAYLOAD,2022-09-13 06:00:00,15.77450611,0.0001309,53.2173,232.7749,62.5527,115.2513,-0.0079608,-0.01195084,0.0,0 STARLINK-4717,1 53705U 22107F   22256.25001157 -.01195084  00000-0 -79608-2 0  9992,2 53705  53.2173 232.7749 0001309  62.5527 115.2513 15.77450611  1407,6715.804,91.287,338.548,336.79,0.0
53705.0,STARLINK-4717,PAYLOAD,2022-09-13 14:00:01,15.7658422,0.0001103,53.2174,231.1151,67.423,203.8833,-0.0082964,-0.01197538,0.0,0 STARLINK-4717,1 53705U 22107F   22256.58334491 -.01197538  00000-0 -82964-2 0  9993,2 53705  53.2174 231.1151 0001103  67.4230 203.8833 15.76584220  1306,6718.264,91.337,340.87,339.3880000000001,0.0
53705.0,STARLINK-4717,PAYLOAD,2022-09-13 20:00:01,15.75930335,0.0001129,53.2174,229.8711,72.2063,178.5439,-0.0085014,-0.01192544,0.0,0 STARLINK-4717,1 53705U 22107F   22256.83334491 -.01192544  00000-0 -85014-2 0  9992,2 53705  53.2174 229.8711 0001129  72.2063 178.5439 15.75930335  1499,6720.121999999999,91.375,342.746,341.228,0.0
53705.0,STARLINK-4717,PAYLOAD,2022-09-13 22:00:00,15.75712802,0.0001035,53.2177,229.4572,66.2257,297.5413,-0.0085721,-0.01191051,0.0,0 STARLINK-4717,1 53705U 22107F   22256.91667824 -.01191051  00000-0 -85721-2 0  9997,2 53705  53.2177 229.4572 0001035  66.2257 297.5413 15.75712802  1308,6720.741,91.387,343.301,341.91,0.0
53705.0,STARLINK-4717,PAYLOAD,2022-09-14 14:00:01,15.73936746,0.0001426,53.2167,226.1516,79.3209,106.1968,-0.0063888,-0.00838985,0.0,0 STARLINK-4717,1 53705U 22107F   22257.58334491 -.00838985  00000-0 -63888-2 0  9995,2 53705  53.2167 226.1516 0001426  79.3209 106.1968 15.73936746  1308,6725.795,91.49,348.62,346.701,0.0
53705.0,STARLINK-4717,PAYLOAD,2022-09-14 20:00:01,15.73308267,0.0001163,53.2172,224.9121,83.0982,79.5901,-0.0011909,-0.00165274,0.0,0 STARLINK-4717,1 53705U 22107F   22257.83334491 -.00165274  00000-0 -11909-2 0  9994,2 53705  53.2172 224.9121 0001163  83.0982  79.5901 15.73308267  1659,6727.587,91.527,350.2340000000001,348.6690000000001,0.0
53705.0,STARLINK-4717,PAYLOAD,2022-09-14 22:00:00,15.7321087,0.0001269,53.2174,224.4997,89.3722,185.5973,-7.9892e-05,-0.00011822,0.0,0 STARLINK-4717,1 53705U 22107F   22257.91667824 -.00011822  00000-0 -79892-4 0  9998,2 53705  53.2174 224.4997 0001269  89.3722 185.5973 15.73210870  1306,6727.864000000001,91.533,350.583,348.875,0.0
53705.0,STARLINK-4717,PAYLOAD,2022-09-15 04:00:00,15.73160353,9.15e-05,53.2146,223.2647,103.6058,147.9186,0.00028387,0.00039338,0.0,0 STARLINK-4717,1 53705U 22107F   22258.16667824  .00039338  00000-0  28387-3 0  9998,2 53705  53.2146 223.2647 0000915 103.6058 147.9186 15.73160353  1705,6728.0080000000025,91.535,350.48900000000015,349.2580000000001,0.0
53705.0,STARLINK-4717,PAYLOAD,2022-09-15 14:00:01,15.73241854,8.58e-05,53.2149,221.2019,110.3127,342.3648,0.00023748,0.00032899,0.0,0 STARLINK-4717,1 53705U 22107F   22258.58334491  .00032899  00000-0  23748-3 0  9996,2 53705  53.2149 221.2019 0000858 110.3127 342.3648 15.73241854  1303,6727.776,91.531,350.218,349.064,0.0
53705.0,STARLINK-4717,PAYLOAD,2022-09-15 22:00:00,15.73285855,0.0001054999999999,53.2149,219.5516,117.2862,64.3736,0.00026356,0.00036666,0.0,0 STARLINK-4717,1 53705U 22107F   22258.91667824  .00036666  00000-0  26356-3 0  9996,2 53705  53.2149 219.5516 0001055 117.2862  64.3736 15.73285855  1305,6727.65,91.528,350.225,348.806,0.0
53705.0,STARLINK-4717,PAYLOAD,2022-09-16 00:00:00,15.73326872,0.0001004,53.2148,219.1398,114.2588,179.6507,-0.00035309,-0.00050147,0.0,0 STARLINK-4717,1 53705U 22107F   22259.00001157 -.00050147  00000-0 -35309-3 0  9998,2 53705  53.2148 219.1398 0001004 114.2588 179.6507 15.73326872  1833,6727.533,91.526,350.074,348.723,0.0
53705.0,STARLINK-4717,PAYLOAD,2022-09-16 14:00:01,15.73249392,0.0001152,53.214,216.253,112.0029,247.7264,-0.0010907999999999,-0.00151301,0.0,0 STARLINK-4717,1 53705U 22107F   22259.58334491 -.00151301  00000-0 -10908-2 0  9992,2 53705  53.2140 216.2530 0001152 112.0029 247.7264 15.73249392  1301,6727.754,91.53,350.394,348.844,0.0
53705.0,STARLINK-4717,PAYLOAD,2022-09-16 16:00:00,15.73180071,0.0001142,53.2141,215.8401,115.1655,356.8207,-0.00033266,-0.00047005,0.0,0 STARLINK-4717,1 53705U 22107F   22259.66667824 -.00047005  00000-0 -33266-3 0  9998,2 53705  53.2141 215.8401 0001142 115.1655 356.8207 15.73180071  1949,6727.9519999999975,91.534,350.585,349.0490000000001,0.0
53705.0,STARLINK-4717,PAYLOAD,2022-09-16 22:00:00,15.73150856,0.0001396999999999,53.2142,214.6028,115.2389,333.4086,0.0003801,0.00052949,0.0,0 STARLINK-4717,1 53705U 22107F   22259.91667824  .00052949  00000-0  38010-3 0  9999,2 53705  53.2142 214.6028 0001397 115.2389 333.4086 15.73150856  1303,6728.035,91.536,350.84,348.96,0.0
53705.0,STARLINK-4717,PAYLOAD,2022-09-17 06:00:00,15.73180797,0.0001149,53.2143,212.9554,106.37,71.1772,-0.00011357,-0.00016514,0.0,0 STARLINK-4717,1 53705U 22107F   22260.25001157 -.00016514  00000-0 -11357-3 0  9994,2 53705  53.2143 212.9554 0001149 106.3700  71.1772 15.73180797  2038,6727.95,91.534,350.588,349.042,0.0
53705.0,STARLINK-4717,PAYLOAD,2022-09-17 14:00:01,15.73168291,0.0001042,53.2142,211.3044,117.2505,149.1906,0.00014965,0.00020405,0.0,0 STARLINK-4717,1 53705U 22107F   22260.58334491  .00020405  00000-0  14965-3 0  9990,2 53705  53.2142 211.3044 0001042 117.2505 149.1906 15.73168291  1309,6727.986,91.535,350.552,349.15,0.0
53705.0,STARLINK-4717,PAYLOAD,2022-09-17 22:00:00,15.73209595,0.0001167,53.2142,209.6546,120.4193,234.9181,0.00029338,0.00040771,0.0,0 STARLINK-4717,1 53705U 22107F   22260.91667824  .00040771  00000-0  29338-3 0  9994,2 53705  53.2142 209.6546 0001167 120.4193 234.9181 15.73209595  1304,6727.868,91.533,350.51800000000014,348.9480000000001,0.0
53705.0,STARLINK-4717,PAYLOAD,2022-09-18 14:00:01,15.73215022,0.0001355,53.2135,206.3556,116.2133,57.1233,0.00027188,0.00037733,0.0,0 STARLINK-4717,1 53705U 22107F   22261.58335648  .00037733  00000-0  27188-3 0  9999,2 53705  53.2135 206.3556 0001355 116.2133  57.1233 15.73215022  1302,6727.852,91.532,350.629,348.806,0.0
53705.0,STARLINK-4717,PAYLOAD,2022-09-18 22:00:00,15.73283328,0.0001538,53.2137,204.7059,119.2414,142.9838,-0.00053889,-0.00075843,0.0,0 STARLINK-4717,1 53705U 22107F   22261.91667824 -.00075843  00000-0 -53889-3 0  9993,2 53705  53.2137 204.7059 0001538 119.2414 142.9838 15.73283328  1300,6727.658,91.528,350.557,348.48800000000006,0.0
53705.0,STARLINK-4717,PAYLOAD,2022-09-19 06:00:02,15.73233365,0.0001450999999999,53.2138,203.0581,109.6427,241.6473,-0.00018251,-0.00026192,0.0,0 STARLINK-4717,1 53705U 22107F   22262.25002315 -.00026192  00000-0 -18251-3 0  9996,2 53705  53.2138 203.0581 0001451 109.6427 241.6473 15.73233365  2358,6727.8,91.531,350.641,348.689,0.0
53705.0,STARLINK-4717,PAYLOAD,2022-09-19 14:00:01,15.73184403,0.0001458,53.2139,201.4066,118.9673,321.2216,-9.8341e-05,-0.00014389,0.0,0 STARLINK-4717,1 53705U 22107F   22262.58334491 -.00014389  00000-0 -98341-4 0  9999,2 53705  53.2139 201.4066 0001458 118.9673 321.2216 15.73184403  1304,6727.94,91.534,350.786,348.824,0.0
53705.0,STARLINK-4717,PAYLOAD,2022-09-19 22:00:00,15.73202298,0.0001625,53.2139,199.7572,119.0964,49.9859,0.0002428,0.00033595,0.0,0 STARLINK-4717,1 53705U 22107F   22262.91667824  .00033595  00000-0  24280-3 0  9993,2 53705  53.2139 199.7572 0001625 119.0964  49.9859 15.73202298  1306,6727.889,91.533,350.847,348.66,0.0
53705.0,STARLINK-4717,PAYLOAD,2022-09-20 14:00:01,15.73151374,0.0001595999999999,53.2133,196.4578,122.606,224.3673,0.00018848,0.00025859,0.0,0 STARLINK-4717,1 53705U 22107F   22263.58334491  .00025859  00000-0  18848-3 0  9995,2 53705  53.2133 196.4578 0001596 122.6060 224.3673 15.73151374  2564,6728.034000000002,91.536,350.973,348.825,0.0
53705.0,STARLINK-4717,PAYLOAD,2022-09-20 22:00:01,15.73187595,0.0001648,53.2137,194.8086,122.9346,312.9599,0.0001351,0.00018372,0.0,0 STARLINK-4717,1 53705U 22107F   22263.91668981  .00018372  00000-0  13510-3 0  9999,2 53705  53.2137 194.8086 0001648 122.9346 312.9599 15.73187595  1308,6727.931,91.534,350.904,348.68699999999984,0.0
53705.0,STARLINK-4717,PAYLOAD,2022-09-21 22:00:00,15.73265319,0.0001329,53.2142,189.8601,131.2574,211.3197,-0.00033642,-0.00047699,0.0,0 STARLINK-4717,1 53705U 22107F   22264.91667824 -.00047699  00000-0 -33642-3 0  9999,2 53705  53.2142 189.8601 0001329 131.2574 211.3197 15.73265319  2772,6727.709,91.529,350.468,348.68,0.0
53705.0,STARLINK-4717,PAYLOAD,2022-09-22 14:00:01,15.73145361,0.0001346,53.2137,186.5605,134.3123,26.1955,0.00048819,0.00068292,0.0,0 STARLINK-4717,1 53705U 22107F   22265.58334491  .00068292  00000-0  48819-3 0  9996,2 53705  53.2137 186.5605 0001346 134.3123  26.1955 15.73145361  1303,6728.051,91.536,350.82199999999995,349.01,0.0
53705.0,STARLINK-4717,PAYLOAD,2022-09-22 22:00:00,15.73234628,0.0001509,53.2141,184.9116,131.2207,118.1829,-0.00056082,-0.00078713,0.0,0 STARLINK-4717,1 53705U 22107F   22265.91667824 -.00078713  00000-0 -56082-3 0  9994,2 53705  53.2141 184.9116 0001509 131.2207 118.1829 15.73234628  1304,6727.795999999999,91.531,350.677,348.646,0.0
53705.0,STARLINK-4717,PAYLOAD,2022-09-23 06:00:00,15.73152912,0.0001383,53.2142,183.2635,122.4161,215.9229,0.00068679,0.00096687,0.0,0 STARLINK-4717,1 53705U 22107F   22266.25001157  .00096687  00000-0  68679-3 0  9996,2 53705  53.2142 183.2635 0001383 122.4161 215.9229 15.73152912  2973,6728.029,91.536,350.825,348.964,0.0
